CUTE-1 (CO-55)          
1 27844U 03031E   22208.52049347  .00000125  00000+0  75714-4 0  9995
2 27844  98.6783 215.6013 0009691 353.6644   6.4410 14.22472728989563
CUBESAT XI-IV (CO-57)   
1 27848U 03031J   22208.49599126  .00000104  00000+0  66746-4 0  9992
2 27848  98.6829 216.0886 0009872   7.8826 352.2505 14.22027245989378
CUBESAT XI-V            
1 28895U 05043F   22208.35477546  .00000431  00000+0  90439-4 0  9995
2 28895  98.1115 339.1297 0016936  20.4223 339.7653 14.64405621893257
CUTE-1.7+APD II (CO-65) 
1 32785U 08021C   22208.53169787  .00001060  00000+0  11618-3 0  9992
2 32785  97.6596 178.1183 0014229  99.8082 260.4744 14.89710416772523
AAUSAT-II               
1 32788U 08021F   22208.45924854  .00001755  00000+0  15413-3 0  9998
2 32788  97.5354 192.3678 0011131 358.7045   1.4147 14.97777400774425
DELFI-C3 (DO-64)        
1 32789U 08021G   22208.52937526  .00006743  00000+0  36792-3 0  9992
2 32789  97.3371 233.3956 0010605 173.9818 186.1543 15.14620301777991
SEEDS II (CO-66)        
1 32791U 08021J   22207.92476982  .00001397  00000+0  14003-3 0  9993
2 32791  97.6127 182.9815 0014140  62.1682 298.0969 14.92846256773080
SWISSCUBE               
1 35932U 09051B   22208.55378814  .00000317  00000+0  81666-4 0  9993
2 35932  98.5647  65.6033 0006342 288.8480  71.2029 14.56909438681936
BEESAT-1                
1 35933U 09051C   22208.50849270  .00000273  00000+0  71802-4 0  9990
2 35933  98.5586  67.1590 0004696 306.2018  53.8745 14.56920040682086
ITUPSAT1                
1 35935U 09051E   22208.55045080  .00000244  00000+0  66435-4 0  9998
2 35935  98.5687  67.2475 0007053 306.7538  53.3011 14.56025431681715
TISAT 1                 
1 36799U 10035E   22208.53121998  .00001522  00000+0  15206-3 0  9991
2 36799  98.1793  60.5510 0011092 330.7077  29.3519 14.93056013653746
M-CUBED & EXP-1 PRIME   
1 37855U 11061F   22208.32284432  .00003759  00000+0  16799-3 0  9997
2 37855 101.7139 348.5226 0151749 302.7823  55.8849 15.12916643587269
AEROCUBE 4.5A           
1 38767U 12048K   22208.45478791  .00002427  00000+0  17653-3 0  9994
2 38767  64.6665 345.2036 0174404 251.6993 106.5079 14.95077587156760
AEROCUBE 4.5B           
1 38768U 12048L   22208.54292199  .00003781  00000+0  24320-3 0  9994
2 38768  64.6671 298.5629 0160980 247.1374 111.2676 14.99953120157164
STRAND-1                
1 39090U 13009E   22208.52296569  .00000090  00000+0  46320-4 0  9999
2 39090  98.4029  45.6098 0009679 145.5302 214.6513 14.35308051493141
BRITE-AUSTRIA           
1 39091U 13009F   22208.50825390  .00000064  00000+0  37027-4 0  9993
2 39091  98.4046  44.7697 0010963 152.9443 207.2316 14.35286806493177
SOMP                    
1 39134U 13015E   22208.52762423  .00007937  00000+0  27856-3 0  9991
2 39134  64.8619 290.2779 0035767 274.4436  85.2610 15.29485432513363
BEESAT-3                
1 39135U 13015F   22208.54656158  .00005897  00000+0  24171-3 0  9991
2 39135  64.8672 327.2392 0039043 279.8870  79.7853 15.24563490512224
BEESAT-2                
1 39136U 13015G   22208.48951903  .00005559  00000+0  23891-3 0  9994
2 39136  64.8761 335.8192 0019073 297.5308  62.3883 15.23548436512011
NEE-01 PEGASO           
1 39151U 13018B   22208.50946164  .00000674  00000+0  93673-4 0  9999
2 39151  97.9941 314.0414 0018023 123.2124 237.0819 14.81025338499609
ESTCUBE 1               
1 39161U 13021C   22208.16205322  .00000885  00000+0  14536-3 0  9994
2 39161  97.9065 284.3650 0008027 299.7452  60.2958 14.73020463495313
POPACS 1                
1 39268U 13055D   22208.39168045  .00012003  00000+0  29908-3 0  9998
2 39268  80.9941 196.5164 0568843  79.8869 286.5969 14.51397871459092
POPACS 2                
1 39269U 13055E   22208.37109289  .00004662  00000+0  12870-3 0  9994
2 39269  81.0106 254.5180 0644297 230.1688 124.1098 14.33385556455903
POPACS 3                
1 39270U 13055F   22208.54788338  .00003216  00000+0  97604-4 0  9996
2 39270  81.0156 287.9223 0686953 324.8501  30.9111 14.22306162434336
ZACUBE-1 (TSHEPISOSAT)  
1 39417U 13066B   22208.46176158  .00000855  00000+0  11021-3 0  9997
2 39417  97.6386 178.1606 0055995 273.6866  85.7946 14.82472060469052
WNISAT-1                
1 39423U 13066H   22208.56598807  .00000566  00000+0  12028-3 0  9991
2 39423  97.7492  87.0794 0175250  12.9123 347.6483 14.53529130460282
TRITON-1                
1 39427U 13066M   22208.38628864  .00000616  00000+0  10331-3 0  9993
2 39427  97.8132 142.4484 0112685 136.4817 224.5350 14.69043551464640
DELFI-N3XT              
1 39428U 13066N   22208.57151379  .00000944  00000+0  15179-3 0  9996
2 39428  97.8143 141.2097 0117730 148.9107 211.9137 14.69304952464420
GOMX-1                  
1 39430U 13066Q   22208.47178984  .00000959  00000+0  17978-3 0  9994
2 39430  97.8062 113.3832 0147651 278.9403  79.5064 14.60283362462133
CUBEBUG-2 (LO-74)       
1 39440U 13066AA  22208.42413205  .00001159  00000+0  16294-3 0  9991
2 39440  97.7281 164.3065 0078784   3.0332 357.1341 14.77128146466186
NEE-02 KRYSAOR          
1 39441U 13066AB  22208.39325627  .00000818  00000+0  12044-3 0  9998
2 39441  97.7392 161.4403 0081006  16.8479 343.5392 14.75827860465922
FUNCUBE-1 (AO-73)       
1 39444U 13066AE  22208.44897369  .00001025  00000+0  12756-3 0  9995
2 39444  97.6265 180.5595 0054815 261.3181  98.1822 14.83577952467456
UWE-3                   
1 39446U 13066AG  22208.44431232  .00001000  00000+0  13510-3 0  9992
2 39446  97.6877 170.7867 0067524 320.0663  39.5593 14.79694910466372
AEROCUBE 5A             
1 39465U 13072D   22208.51825405  .00028994  00000+0  16355-2 0  9997
2 39465 120.4854 102.2548 0193905 323.1478  35.6396 14.98468662155625
AEROCUBE 5B             
1 39466U 13072E   22208.53919620  .00074541  00000+0  24229-2 0  9991
2 39466 120.4549 193.7136 0131169 345.6039  14.1321 15.23370718156827
BRITE-CA1 (TORONTO)     
1 40020U 14033L   22208.38554198  .00000435  00000+0  81314-4 0  9996
2 40020  97.7826   5.3215 0087825 135.4910 225.3395 14.67087993433515
DUCHIFAT-1              
1 40021U 14033M   22208.55296300  .00002137  00000+0  21070-3 0  9997
2 40021  98.0140 159.4915 0010694 268.6846  91.3147 14.93096594440682
NANOSATC-BR1            
1 40024U 14033Q   22208.38819317  .00001700  00000+0  17384-3 0  9998
2 40024  97.9868 152.4822 0010333 277.3785  82.6259 14.91905683439938
QB50P1                  
1 40025U 14033R   22208.40055843  .00001147  00000+0  12291-3 0  9995
2 40025  97.9608 146.1165 0010682 288.5685  71.4372 14.90653685439710
QB50P2                  
1 40032U 14033Y   22208.37440539  .00001211  00000+0  13119-3 0  9991
2 40032  97.9378 141.3203 0010132 286.3470  73.6633 14.90068993439569
PERSEUS-M2              
1 40037U 14033AD  22208.47551844  .00000446  00000+0  55698-4 0  9997
2 40037  97.8952 130.4725 0013118 310.9732  49.0348 14.87163747439076
PERSEUS-M1              
1 40039U 14033AF  22208.54811931  .00000442  00000+0  55817-4 0  9992
2 40039  97.8852 128.2340 0012938 309.8033  50.2042 14.86771553438966
POLYITAN-1              
1 40042U 14033AJ  22208.48102283  .00001341  00000+0  14247-3 0  9992
2 40042  97.9715 147.4427 0012733 279.1620  80.8157 14.90705299439610
TIGRISAT                
1 40043U 14033AK  22208.45462154  .00000480  00000+0  76486-4 0  9993
2 40043  97.6564  35.5561 0059902  28.2208 332.2226 14.75081477435525
AEROCUBE 6A             
1 40045U 14033AM  22208.52207899  .00000508  00000+0  78088-4 0  9997
2 40045  97.6652  44.5157 0057341  15.9299 344.3698 14.76473112435691
AEROCUBE 6B             
1 40046U 14033AN  22208.48964161  .00000949  00000+0  13870-3 0  9991
2 40046  97.6567  42.9278 0056158  14.1427 346.1340 14.76855164435697
UKUBE-1                 
1 40074U 14037F   22208.43062949  .00001599  00000+0  19201-3 0  9990
2 40074  98.3775  91.1840 0004688 147.0744 213.0751 14.85527837436004
BRITE-PL2 (HEWELIUSZ)   
1 40119U 14049B   22208.49865519  .00000561  00000+0  71657-4 0  9995
2 40119  97.8850 303.7162 0018603 109.9476 250.3745 14.85203138429950
FIREBIRD 4              
1 40378U 15003C   22208.53678614  .00008628  00000+0  25297-3 0  9996
2 40378  99.0957  82.6348 0096928 248.6025 110.4848 15.30935637414552
GRIFEX                  
1 40379U 15003D   22208.51491001  .00005017  00000+0  17774-3 0  9998
2 40379  99.1076  68.0806 0112970 293.0142  65.9207 15.23878075413739
CP10 (EXOCUBE)          
1 40380U 15003E   22208.51005461  .00003563  00000+0  13866-3 0  9993
2 40380  99.1172  60.7040 0121578 317.8926  41.3010 15.20336738413255
TIANWANG 1A (TW-1A)     
1 40928U 15051D   22208.34671506  .00036327  00000+0  40230-3 0  9993
2 40928  97.0361 230.7235 0005464 213.7083 205.0208 15.62892022384465
EXACTVIEW 9             
1 40936U 15052G   22208.21283216  .00001187  00000+0  75220-4 0  9990
2 40936   6.0032 249.7891 0010376 356.8521   3.1541 14.77219594369104
AEROCUBE 5C             
1 40965U 15058B   22208.50293151  .00001444  00000+0  17632-3 0  9997
2 40965  64.7786 329.8158 0187881 187.3940 172.4389 14.75735438154871
AEROCUBE 7              
1 40966U 15058C   22208.48622514  .00001683  00000+0  20064-3 0  9992
2 40966  64.7798 326.9569 0185803 187.0560 172.7927 14.76318296154877
ATHENOXAT 1             
1 41168U 15077C   22208.20773545  .00011465  00000+0  45532-3 0  9995
2 41168  14.9855 155.5743 0008360  72.0616 330.1054 15.21877975366376
GALASSIA                
1 41170U 15077E   22208.47022659  .00006538  00000+0  25249-3 0  9998
2 41170  14.9871 144.7532 0010354 112.0012 248.1411 15.21033708366322
VELOX-II                
1 41171U 15077F   22208.38825077  .00004834  00000+0  20685-3 0  9990
2 41171  14.9895 220.7266 0007661 304.4886  55.4712 15.16266364365682
HORYU-4                 
1 41340U 16012D   22208.40701876  .00001769  00000+0  12004-3 0  9991
2 41340  31.0048 103.9262 0013451 238.8390 121.0927 15.03525940353748
